STARLINK-1227           
1 45230U 20012BE  26068.18453812  .00001087  00000+0  47655-4 0  9999
2 45230  53.1607   1.2165 0001062  82.0274 278.0847 15.31040019335455
NUSAT-49 (KLARA DAN VO*)
1 60500U 24149AJ  26068.79810190  .00012912  00000+0  43568-3 0  9991
2 60500  97.3807 150.7380 0001132 286.7761  73.3356 15.30828857 86935
